CCSDS_OMM_VERS = 2.0
CREATION_DATE  = 
ORIGINATOR     = 

OBJECT_NAME    = 2025-292J
OBJECT_ID      = 2025-292J
CENTER_NAME    = EARTH
REF_FRAME      = TEME
TIME_SYSTEM    = UTC
MEAN_ELEMENT_THEORY = SGP/SGP4

EPOCH          = 2025-12-25T21:51:18.949536
MEAN_MOTION    = 15.04441013
ECCENTRICITY   = .00151116
INCLINATION    = 97.6527
RA_OF_ASC_NODE = 72.3351
ARG_OF_PERICENTER = 221.1788
MEAN_ANOMALY   = 138.8299

EPHEMERIS_TYPE = 0
CLASSIFICATION_TYPE = U
NORAD_CAT_ID   = 67001
ELEMENT_SET_NO = 999
REV_AT_EPOCH   = 237
BSTAR          = .40309168E-3
MEAN_MOTION_DOT = .5588E-4
MEAN_MOTION_DDOT = 0

CCSDS_OMM_VERS = 2.0
CREATION_DATE  = 
ORIGINATOR     = 

OBJECT_NAME    = ZK-1A R/B
OBJECT_ID      = 2025-292K
CENTER_NAME    = EARTH
REF_FRAME      = TEME
TIME_SYSTEM    = UTC
MEAN_ELEMENT_THEORY = SGP/SGP4

EPOCH          = 2025-12-25T15:27:35.559648
MEAN_MOTION    = 15.58719321
ECCENTRICITY   = .02053014
INCLINATION    = 97.7200
RA_OF_ASC_NODE = 73.4910
ARG_OF_PERICENTER = 318.2476
MEAN_ANOMALY   = 40.3264

EPHEMERIS_TYPE = 0
CLASSIFICATION_TYPE = U
NORAD_CAT_ID   = 67002
ELEMENT_SET_NO = 999
REV_AT_EPOCH   = 240
BSTAR          = .75460868E-3
MEAN_MOTION_DOT = .163638E-2
MEAN_MOTION_DDOT = .9390995E-5

CCSDS_OMM_VERS = 2.0
CREATION_DATE  = 
ORIGINATOR     = 

OBJECT_NAME    = STARLINK-35660
OBJECT_ID      = 2025-293A
CENTER_NAME    = EARTH
REF_FRAME      = TEME
TIME_SYSTEM    = UTC
MEAN_ELEMENT_THEORY = SGP/SGP4

EPOCH          = 2025-12-25T22:00:01.999584
MEAN_MOTION    = 15.75312433
ECCENTRICITY   = .000342
INCLINATION    = 69.9950
RA_OF_ASC_NODE = 285.7013
ARG_OF_PERICENTER = 268.1087
MEAN_ANOMALY   = 215.4355

EPHEMERIS_TYPE = 0
CLASSIFICATION_TYPE = U
NORAD_CAT_ID   = 67003
ELEMENT_SET_NO = 999
REV_AT_EPOCH   = 228
BSTAR          = -.12607112E-1
MEAN_MOTION_DOT = -.1687983E-1
MEAN_MOTION_DDOT = 0

CCSDS_OMM_VERS = 2.0
CREATION_DATE  = 
ORIGINATOR     = 

OBJECT_NAME    = STARLINK-35913
OBJECT_ID      = 2025-293B
CENTER_NAME    = EARTH
REF_FRAME      = TEME
TIME_SYSTEM    = UTC
MEAN_ELEMENT_THEORY = SGP/SGP4

EPOCH          = 2025-12-25T22:00:01.999584
MEAN_MOTION    = 15.75302421
ECCENTRICITY   = .00034406
INCLINATION    = 69.9952
RA_OF_ASC_NODE = 285.6989
ARG_OF_PERICENTER = 266.1294
MEAN_ANOMALY   = 219.5655

EPHEMERIS_TYPE = 0
CLASSIFICATION_TYPE = U
NORAD_CAT_ID   = 67004
ELEMENT_SET_NO = 999
REV_AT_EPOCH   = 228
BSTAR          = -.12619761E-1
MEAN_MOTION_DOT = -.1688844E-1
MEAN_MOTION_DDOT = 0

CCSDS_OMM_VERS = 2.0
CREATION_DATE  = 
ORIGINATOR     = 

OBJECT_NAME    = STARLINK-36148
OBJECT_ID      = 2025-293C
CENTER_NAME    = EARTH
REF_FRAME      = TEME
TIME_SYSTEM    = UTC
MEAN_ELEMENT_THEORY = SGP/SGP4

EPOCH          = 2025-12-25T22:00:01.999584
MEAN_MOTION    = 15.75289613
ECCENTRICITY   = .00035932
INCLINATION    = 69.9956
RA_OF_ASC_NODE = 285.6975
ARG_OF_PERICENTER = 268.6305
MEAN_ANOMALY   = 219.2968

EPHEMERIS_TYPE = 0
CLASSIFICATION_TYPE = U
NORAD_CAT_ID   = 67005
ELEMENT_SET_NO = 999
REV_AT_EPOCH   = 228
BSTAR          = -.12626776E-1
MEAN_MOTION_DOT = -.1688975E-1
MEAN_MOTION_DDOT = 0

CCSDS_OMM_VERS = 2.0
CREATION_DATE  = 
ORIGINATOR     = 

OBJECT_NAME    = STARLINK-36156
OBJECT_ID      = 2025-293D
CENTER_NAME    = EARTH
REF_FRAME      = TEME
TIME_SYSTEM    = UTC
MEAN_ELEMENT_THEORY = SGP/SGP4

EPOCH          = 2025-12-25T22:00:01.999584
MEAN_MOTION    = 15.75245355
ECCENTRICITY   = .00037138
INCLINATION    = 69.9951
RA_OF_ASC_NODE = 285.6900
ARG_OF_PERICENTER = 269.7207
MEAN_ANOMALY   = 223.1809

EPHEMERIS_TYPE = 0
CLASSIFICATION_TYPE = U
NORAD_CAT_ID   = 67006
ELEMENT_SET_NO = 999
REV_AT_EPOCH   = 228
BSTAR          = -.12717502E-1
MEAN_MOTION_DOT = -.1696908E-1
MEAN_MOTION_DDOT = 0

CCSDS_OMM_VERS = 2.0
CREATION_DATE  = 
ORIGINATOR     = 

OBJECT_NAME    = STARLINK-36123
OBJECT_ID      = 2025-293E
CENTER_NAME    = EARTH
REF_FRAME      = TEME
TIME_SYSTEM    = UTC
MEAN_ELEMENT_THEORY = SGP/SGP4

EPOCH          = 2025-12-25T22:00:01.999584
MEAN_MOTION    = 15.75257533
ECCENTRICITY   = .00034303
INCLINATION    = 69.9951
RA_OF_ASC_NODE = 285.6927
ARG_OF_PERICENTER = 267.0374
MEAN_ANOMALY   = 223.5385

EPHEMERIS_TYPE = 0
CLASSIFICATION_TYPE = U
NORAD_CAT_ID   = 67007
ELEMENT_SET_NO = 999
REV_AT_EPOCH   = 228
BSTAR          = -.12643756E-1
MEAN_MOTION_DOT = -.1688726E-1
MEAN_MOTION_DDOT = 0

CCSDS_OMM_VERS = 2.0
CREATION_DATE  = 
ORIGINATOR     = 

OBJECT_NAME    = STARLINK-36163
OBJECT_ID      = 2025-293F
CENTER_NAME    = EARTH
REF_FRAME      = TEME
TIME_SYSTEM    = UTC
MEAN_ELEMENT_THEORY = SGP/SGP4

EPOCH          = 2025-12-25T22:00:01.999584
MEAN_MOTION    = 15.75198648
ECCENTRICITY   = .00034933
INCLINATION    = 69.9953
RA_OF_ASC_NODE = 285.6868
ARG_OF_PERICENTER = 268.1503
MEAN_ANOMALY   = 227.5611

EPHEMERIS_TYPE = 0
CLASSIFICATION_TYPE = U
NORAD_CAT_ID   = 67008
ELEMENT_SET_NO = 999
REV_AT_EPOCH   = 228
BSTAR          = -.12670151E-1
MEAN_MOTION_DOT = -.1688036E-1
MEAN_MOTION_DDOT = 0

CCSDS_OMM_VERS = 2.0
CREATION_DATE  = 
ORIGINATOR     = 

OBJECT_NAME    = STARLINK-36118
OBJECT_ID      = 2025-293G
CENTER_NAME    = EARTH
REF_FRAME      = TEME
TIME_SYSTEM    = UTC
MEAN_ELEMENT_THEORY = SGP/SGP4

EPOCH          = 2025-12-25T22:00:01.999584
MEAN_MOTION    = 15.75177296
ECCENTRICITY   = .00033437
INCLINATION    = 69.9954
RA_OF_ASC_NODE = 285.6840
ARG_OF_PERICENTER = 268.8117
MEAN_ANOMALY   = 229.3418

EPHEMERIS_TYPE = 0
CLASSIFICATION_TYPE = U
NORAD_CAT_ID   = 67009
ELEMENT_SET_NO = 999
REV_AT_EPOCH   = 222
BSTAR          = -.12682807E-1
MEAN_MOTION_DOT = -.168799E-1
MEAN_MOTION_DDOT = 0

CCSDS_OMM_VERS = 2.0
CREATION_DATE  = 
ORIGINATOR     = 

OBJECT_NAME    = STARLINK-36189
OBJECT_ID      = 2025-293H
CENTER_NAME    = EARTH
REF_FRAME      = TEME
TIME_SYSTEM    = UTC
MEAN_ELEMENT_THEORY = SGP/SGP4

EPOCH          = 2025-12-25T22:00:01.999584
MEAN_MOTION    = 15.75149552
ECCENTRICITY   = .00032903
INCLINATION    = 69.9950
RA_OF_ASC_NODE = 285.6781
ARG_OF_PERICENTER = 264.8666
MEAN_ANOMALY   = 237.8150

EPHEMERIS_TYPE = 0
CLASSIFICATION_TYPE = U
NORAD_CAT_ID   = 67010
ELEMENT_SET_NO = 999
REV_AT_EPOCH   = 228
BSTAR          = -.12724295E-1
MEAN_MOTION_DOT = -.1691006E-1
MEAN_MOTION_DDOT = 0

CCSDS_OMM_VERS = 2.0
CREATION_DATE  = 
ORIGINATOR     = 

OBJECT_NAME    = STARLINK-36167
OBJECT_ID      = 2025-293J
CENTER_NAME    = EARTH
REF_FRAME      = TEME
TIME_SYSTEM    = UTC
MEAN_ELEMENT_THEORY = SGP/SGP4

EPOCH          = 2025-12-25T22:00:01.999584
MEAN_MOTION    = 15.75172463
ECCENTRICITY   = .00034785
INCLINATION    = 69.9947
RA_OF_ASC_NODE = 285.6805
ARG_OF_PERICENTER = 268.0084
MEAN_ANOMALY   = 232.2079

EPHEMERIS_TYPE = 0
CLASSIFICATION_TYPE = U
NORAD_CAT_ID   = 67011
ELEMENT_SET_NO = 999
REV_AT_EPOCH   = 222
BSTAR          = -.12715292E-1
MEAN_MOTION_DOT = -.1691625E-1
MEAN_MOTION_DDOT = 0

CCSDS_OMM_VERS = 2.0
CREATION_DATE  = 
ORIGINATOR     = 

OBJECT_NAME    = STARLINK-36175
OBJECT_ID      = 2025-293K
CENTER_NAME    = EARTH
REF_FRAME      = TEME
TIME_SYSTEM    = UTC
MEAN_ELEMENT_THEORY = SGP/SGP4

EPOCH          = 2025-12-25T22:00:01.999584
MEAN_MOTION    = 15.75135362
ECCENTRICITY   = .00034245
INCLINATION    = 69.9950
RA_OF_ASC_NODE = 285.6754
ARG_OF_PERICENTER = 271.4294
MEAN_ANOMALY   = 233.4085

EPHEMERIS_TYPE = 0
CLASSIFICATION_TYPE = U
NORAD_CAT_ID   = 67012
ELEMENT_SET_NO = 999
REV_AT_EPOCH   = 222
BSTAR          = -.12697864E-1
MEAN_MOTION_DOT = -.1687087E-1
MEAN_MOTION_DDOT = 0

