2025-292J               
1 67001U 25292J   25359.91063599  .00005588  00000+0  40309-3 0  9994
2 67001  97.6527  72.3351 0015111 221.1788 138.8299 15.04441013  2376
ZK-1A R/B               
1 67002U 25292K   25359.64416157  .00163638  93910-5  75461-3 0  9993
2 67002  97.7200  73.4910 0205301 318.2476  40.3264 15.58719321  2405
STARLINK-35660          
1 67003U 25293A   25359.91668981 -.01687983  00000+0 -12607-1 0  9999
2 67003  69.9950 285.7013 0003420 268.1087 215.4355 15.75312433  2284
STARLINK-35913          
1 67004U 25293B   25359.91668981 -.01688844  00000+0 -12620-1 0  9992
2 67004  69.9952 285.6989 0003440 266.1294 219.5655 15.75302421  2282
STARLINK-36148          
1 67005U 25293C   25359.91668981 -.01688975  00000+0 -12627-1 0  9995
2 67005  69.9956 285.6975 0003593 268.6305 219.2968 15.75289613  2282
STARLINK-36156          
1 67006U 25293D   25359.91668981 -.01696908  00000+0 -12718-1 0  9992
2 67006  69.9951 285.6900 0003713 269.7207 223.1809 15.75245355  2286
STARLINK-36123          
1 67007U 25293E   25359.91668981 -.01688726  00000+0 -12644-1 0  9990
2 67007  69.9951 285.6927 0003430 267.0374 223.5385 15.75257533  2282
STARLINK-36163          
1 67008U 25293F   25359.91668981 -.01688036  00000+0 -12670-1 0  9994
2 67008  69.9953 285.6868 0003493 268.1503 227.5611 15.75198648  2281
STARLINK-36118          
1 67009U 25293G   25359.91668981 -.01687990  00000+0 -12683-1 0  9997
2 67009  69.9954 285.6840 0003343 268.8117 229.3418 15.75177296  2220
STARLINK-36189          
1 67010U 25293H   25359.91668981 -.01691006  00000+0 -12724-1 0  9998
2 67010  69.9950 285.6781 0003290 264.8666 237.8150 15.75149552  2285
STARLINK-36167          
1 67011U 25293J   25359.91668981 -.01691625  00000+0 -12715-1 0  9996
2 67011  69.9947 285.6805 0003478 268.0084 232.2079 15.75172463  2227
STARLINK-36175          
1 67012U 25293K   25359.91668981 -.01687087  00000+0 -12698-1 0  9994
2 67012  69.9950 285.6754 0003424 271.4294 233.4085 15.75135362  2224
